BEIDOU-3 G4             
1 56564U 23066A   26160.65477200 -.00000266  00000+0  00000+0 0  9992
2 56564   0.4959 329.3886 0004399 170.7790 133.5232  1.00266153 11319
ARABSAT-7B (BADR-8)     
1 56757U 23075A   26160.20442778  .00000162  00000+0  00000+0 0  9993
2 56757   0.0760  28.2038 0004751 356.4437 332.5435  1.00274137 11032
NVS-01 (IRNSS-1J)       
1 56759U 23076A   26160.51007453 -.00000317  00000+0  00000+0 0  9990
2 56759   2.1852 244.7114 0003031  39.6718 286.7073  1.00268947 11031
NUSANTARA TIGA (SATRIA) 
1 57045U 23086A   26160.50689044 -.00000218  00000+0  00000+0 0  9991
2 57045   0.0366 345.8360 0003544   0.6127 239.9147  1.00269266  9689
H2SAT (HEINRICH HERTZ)  
1 57213U 23093A   26160.34202742  .00000019  00000+0  00000+0 0  9992
2 57213   0.0535 112.5698 0001580  24.9166 244.0529  1.00272249 10832
SYRACUSE 4B             
1 57214U 23093B   26160.16850194  .00000000  00000+0  00000+0 0  9993
2 57214   0.0189 344.6046 0000223 235.0158  92.1727  1.00270453  6889
JUPITER 3 (ECHOSTAR 24) 
1 57479U 23108A   26159.55083615  .00000000  00000+0  00000+0 0  9990
2 57479   0.0204 336.8423 0001259 100.9544 282.2174  1.00270887 10559
GALAXY 37 (G-37)        
1 57493U 23112A   26160.57420084  .00000065  00000+0  00000+0 0  9991
2 57493   0.0177 353.8406 0001889  86.5458 257.2803  1.00271812 10466
LUDI TANCE-4 01A        
1 57624U 23120A   26160.62214260 -.00000156  00000+0  00000+0 0  9991
2 57624  15.1069 194.1586 0000855  72.8193 304.7079  1.00270612 10471
TJS-10                  
1 58204U 23169A   26160.71661575 -.00000231  00000+0  00000+0 0  9998
2 58204   2.5242  80.5786 0004022 100.4016  67.4655  1.00267094  9461
ZHONGXING-6E            
1 58253U 23172A   26160.64995071 -.00000344  00000+0  00000+0 0  9994
2 58253   0.0160  28.6526 0002416  52.3601 166.5161  1.00268828  9584
YAOGAN-41               
1 58582U 23197A   26160.65142405 -.00000347  00000+0  00000+0 0  9995
2 58582   3.1433 313.0095 0014083 193.1312 109.5788  1.00274626  9242
OVZON-3                 
1 58698U 24003A   26160.21110112  .00000069  00000+0  00000+0 0  9992
2 58698   0.0056 284.8156 0000141  23.3833  85.0860  1.00268715  7364
INSAT-3DS               
1 58990U 24033A   26160.50073903 -.00000139  00000+0  00000+0 0  9997
2 58990   0.0039 105.7665 0001203 327.6742  86.7876  1.00272814 46997
MERAH PUTIH 2           
1 58995U 24035A   26160.50680572  .00000000  00000+0  00000+0 0  9996
2 58995   0.0173 338.7262 0001035 100.0954 114.4620  1.00267771  8511
TJS-11                  
1 59020U 24037A   26158.62838740 -.00000345  00000+0  00000+0 0  9993
2 59020   4.2123 326.9451 0005501 181.0800  86.5687  1.00174849  8483
HULIANWAN GAOGUI-01 (H*)
1 59069U 24040A   26160.20590110  .00000173  00000+0  00000+0 0  9991
2 59069   0.0673 328.9799 0003170  71.4690 324.8874  1.00271589  7244
EUTELSAT 36D            
1 59346U 24059A   26160.49155233  .00000173  00000+0  00000+0 0  9993
2 59346   0.0188  16.0447 0000348 163.8870 290.7760  1.00270881  8079
PAKSAT-MM1              
1 59915U 24104A   26160.27811615  .00000170  00000+0  00000+0 0  9992
2 59915   0.0311  97.9512 0002008 330.0741 327.9276  1.00272481  7443
ASTRA 1P (SES-24)       
1 60086U 24115A   26160.13181762  .00000136  00000+0  00000+0 0  9995
2 60086   0.0552   6.4467 0000869 317.3959   0.3293  1.00270234  7116
GOES 19                 
1 60133U 24119A   26160.39823964 -.00000231  00000+0  00000+0 0  9994
2 60133   0.0371 156.7989 0000465 350.6695 178.4881  1.00271943  6886
ZHONGXING-3A            
1 60179U 24122A   26160.60190503 -.00000296  00000+0  00000+0 0  9999
2 60179   0.0442 136.8868 0001322 332.6455 106.7209  1.00270748  7237
TURKSAT 6A              
1 60233U 24127A   26160.42137976  .00000000  00000+0  00000+0 0  9992
2 60233   0.0140 168.6699 0001629 327.2869 315.5349  1.00272122  6936
HULIANWAN GAOGUI-02 (H*)
1 60327U 24135A   26160.60480894 -.00000156  00000+0  00000+0 0  9998
2 60327   0.0425 354.9266 0007517  12.3874 261.5748  1.00268721  7424
ZHONGXING-4A            
1 60606U 24151A   26160.43652721 -.00000345  00000+0  00000+0 0  9997
2 60606   1.3354 270.9304 0000479 212.4323  49.8200  1.00269342  6677
HULIANWAN GAOGUI-03 (H*)
1 61503U 24181A   26159.54233032 -.00000225  00000+0  00000+0 0  9994
2 61503   0.0452 355.5883 0001293 106.2275 273.1815  1.00266015  6737
DSN-3 (KIRAMEKI-3)      
1 61733U 24198A   26160.51302120 -.00000233  00000+0  00000+0 0  9990
2 61733   0.0152 291.7252 0000890 226.2386  68.6798  1.00270107  5843
KOREASAT 6A             
1 61910U 24206A   26160.07614222 -.00000345  00000+0  00000+0 0  9991
2 61910   0.0410 134.5680 0000909 283.0920 343.2187  1.00272075  5752
OPTUS-X (ADS-01)        
1 62006U 24212A   26160.54218402 -.00000126  00000+0  00000+0 0  9994
2 62006   0.0206 327.1794 0001693 151.5146 130.8174  1.00270850  5685
GSAT-N2 (GSAT-20)       
1 62028U 24214A   26160.49796568 -.00000002  00000+0  00000+0 0  9991
2 62028   0.0154 156.8528 0002016 274.9266  73.3750  1.00269118  5828
SXM-9                   
1 62259U 24234A   26159.89724795 -.00000189  00000+0  00000+0 0  9990
2 62259   0.0166 319.2053 0004904 356.9356 179.0016  1.00271326  5490
