OBJECT_NAME,OBJECT_ID,EPOCH,MEAN_MOTION,ECCENTRICITY,INCLINATION,RA_OF_ASC_NODE,ARG_OF_PERICENTER,MEAN_ANOMALY,EPHEMERIS_TYPE,CLASSIFICATION_TYPE,NORAD_CAT_ID,ELEMENT_SET_NO,REV_AT_EPOCH,BSTAR,MEAN_MOTION_DOT,MEAN_MOTION_DDOT
BEIDOU-3 G4,2023-066A,2026-06-09T15:42:52.300800,1.00266153,.0004399,0.4959,329.3886,170.7790,133.5232,0,U,56564,999,1131,0,-.266E-5,0
ARABSAT-7B (BADR-8),2023-075A,2026-06-09T04:54:22.560192,1.00274137,.0004751,0.0760,28.2038,356.4437,332.5435,0,U,56757,999,1103,0,.162E-5,0
NVS-01 (IRNSS-1J),2023-076A,2026-06-09T12:14:30.439392,1.00268947,.00030315,2.1852,244.7114,39.6718,286.7073,0,U,56759,999,1103,0,-.317E-5,0
NUSANTARA TIGA (SATRIA),2023-086A,2026-06-09T12:09:55.334016,1.00269266,.00035443,0.0366,345.8360,0.6127,239.9147,0,U,57045,999,968,0,-.218E-5,0
H2SAT (HEINRICH HERTZ),2023-093A,2026-06-09T08:12:31.169088,1.00272249,.00015801,0.0535,112.5698,24.9166,244.0529,0,U,57213,999,1083,0,.19E-6,0
SYRACUSE 4B,2023-093B,2026-06-09T04:02:38.567616,1.00270453,.00002235,0.0189,344.6046,235.0158,92.1727,0,U,57214,999,688,0,0,0
JUPITER 3 (ECHOSTAR 24),2023-108A,2026-06-08T13:13:12.243360,1.00270887,.00012599,0.0204,336.8423,100.9544,282.2174,0,U,57479,999,1055,0,0,0
GALAXY 37 (G-37),2023-112A,2026-06-09T13:46:50.952576,1.00271812,.00018892,0.0177,353.8406,86.5458,257.2803,0,U,57493,999,1046,0,.65E-6,0
LUDI TANCE-4 01A,2023-120A,2026-06-09T14:55:53.120640,1.00270612,.00008553,15.1069,194.1586,72.8193,304.7079,0,U,57624,999,1047,0,-.156E-5,0
TJS-10,2023-169A,2026-06-09T17:11:55.600800,1.00267094,.0004022,2.5242,80.5786,100.4016,67.4655,0,U,58204,999,946,0,-.231E-5,0
ZHONGXING-6E,2023-172A,2026-06-09T15:35:55.741344,1.00268828,.00024167,0.0160,28.6526,52.3601,166.5161,0,U,58253,999,958,0,-.344E-5,0
YAOGAN-41,2023-197A,2026-06-09T15:38:03.037920,1.00274626,.00140833,3.1433,313.0095,193.1312,109.5788,0,U,58582,999,924,0,-.347E-5,0
OVZON-3,2024-003A,2026-06-09T05:03:59.136768,1.00268715,.0000141,0.0056,284.8156,23.3833,85.0860,0,U,58698,999,736,0,.69E-6,0
INSAT-3DS,2024-033A,2026-06-09T12:01:03.852192,1.00272814,.00012035,0.0039,105.7665,327.6742,86.7876,0,U,58990,999,4699,0,-.139E-5,0
MERAH PUTIH 2,2024-035A,2026-06-09T12:09:48.014208,1.00267771,.00010352,0.0173,338.7262,100.0954,114.4620,0,U,58995,999,851,0,0,0
TJS-11,2024-037A,2026-06-07T15:04:52.671360,1.00174849,.0005501,4.2123,326.9451,181.0800,86.5687,0,U,59020,999,848,0,-.345E-5,0
HULIANWAN GAOGUI-01 (HG-01),2024-040A,2026-06-09T04:56:29.855040,1.00271589,.000317,0.0673,328.9799,71.4690,324.8874,0,U,59069,999,724,0,.173E-5,0
EUTELSAT 36D,2024-059A,2026-06-09T11:47:50.121312,1.00270881,.00003482,0.0188,16.0447,163.8870,290.7760,0,U,59346,999,807,0,.173E-5,0
PAKSAT-MM1,2024-104A,2026-06-09T06:40:29.235360,1.00272481,.00020083,0.0311,97.9512,330.0741,327.9276,0,U,59915,999,744,0,.17E-5,0
ASTRA 1P (SES-24),2024-115A,2026-06-09T03:09:49.042368,1.00270234,.00008693,0.0552,6.4467,317.3959,0.3293,0,U,60086,999,711,0,.136E-5,0
GOES 19,2024-119A,2026-06-09T09:33:27.904896,1.00271943,.00004657,0.0371,156.7989,350.6695,178.4881,0,U,60133,999,688,0,-.231E-5,0
ZHONGXING-3A,2024-122A,2026-06-09T14:26:44.594592,1.00270748,.0001322,0.0442,136.8868,332.6455,106.7209,0,U,60179,999,723,0,-.296E-5,0
TURKSAT 6A,2024-127A,2026-06-09T10:06:47.211264,1.00272122,.00016294,0.0140,168.6699,327.2869,315.5349,0,U,60233,999,693,0,0,0
HULIANWAN GAOGUI-02 (HG-02),2024-135A,2026-06-09T14:30:55.492416,1.00268721,.00075171,0.0425,354.9266,12.3874,261.5748,0,U,60327,999,742,0,-.156E-5,0
ZHONGXING-4A,2024-151A,2026-06-09T10:28:35.950944,1.00269342,.00004797,1.3354,270.9304,212.4323,49.8200,0,U,60606,999,667,0,-.345E-5,0
HULIANWAN GAOGUI-03 (HG-03),2024-181A,2026-06-08T13:00:57.339648,1.00266015,.00012935,0.0452,355.5883,106.2275,273.1815,0,U,61503,999,673,0,-.225E-5,0
DSN-3 (KIRAMEKI-3),2024-198A,2026-06-09T12:18:45.031680,1.00270107,.00008906,0.0152,291.7252,226.2386,68.6798,0,U,61733,999,584,0,-.233E-5,0
KOREASAT 6A,2024-206A,2026-06-09T01:49:38.687808,1.00272075,.00009097,0.0410,134.5680,283.0920,343.2187,0,U,61910,999,575,0,-.345E-5,0
OPTUS-X (ADS-01),2024-212A,2026-06-09T13:00:44.699328,1.00270850,.00016933,0.0206,327.1794,151.5146,130.8174,0,U,62006,999,568,0,-.126E-5,0
GSAT-N2 (GSAT-20),2024-214A,2026-06-09T11:57:04.234752,1.00269118,.0002016,0.0154,156.8528,274.9266,73.3750,0,U,62028,999,582,0,-.2E-7,0
SXM-9,2024-234A,2026-06-08T21:32:02.222880,1.00271326,.00049049,0.0166,319.2053,356.9356,179.0016,0,U,62259,999,549,0,-.189E-5,0
